[
  {
    "name": "PLEIADES NEO 3",
    "line1": "1 48268U 21034A   26010.36223931  .00000958  00000+0  12833-3 0  9997",
    "line2": "2 48268  97.8942  87.3933 0001286  95.9480 264.1880 14.81674598254287",
    "catNr": 48268
  },
  {
    "name": "PLEIADES NEO 4",
    "line1": "1 49070U 21073E   26010.39599259 -.00000057  00000+0 -61827-6 0  9996",
    "line2": "2 49070  97.8946  87.4221 0001212  99.2699 260.8651 14.81676346238006",
    "catNr": 49070
  }
]